     2.100          NAVIGATION                              RINEX VERSION / TYPE
fic2rin                                 09/10/2009 01:07:29 PGM / RUN BY / DATE
                                                            END OF HEADER
11 09  9 10  0  0  0.0 -.189305283129D-04 -.181898940355D-11  .000000000000D+00
     .890000000000D+02  .335937500000D+02  .618418616761D-08  .211967954016D+01
     .171549618244D-05  .979605363682D-02  .109355896711D-04  .515370205879D+04
     .345600000000D+06 -.270083546638D-06 -.249666091883D+01 -.178813934326D-06
     .889346910560D+00  .130093750000D+03  .724118309817D+00 -.862714506951D-08
    -.229652423088D-09  .100000000000D+01  .154800000000D+04  .000000000000D+00
     .240000000000D+01  .000000000000D+00 -.116415321827D-07  .890000000000D+02
     .338406000000D+06  .400000000000D+01
12 09  9 10  0  0  0.0 -.221336726099D-03  .568434188608D-11  .000000000000D+00
     .850000000000D+02  .112500000000D+01  .453804617070D-08  .228079781947D+01
    -.204890966415D-06  .310533167794D-02  .661239027977D-05  .515357374573D+04
     .345600000000D+06 -.186264514923D-08  .191820335797D+01  .465661287308D-07
     .967736699969D+00  .254750000000D+03 -.590447968059D+00 -.799390440678D-08
     .401802450971D-09  .100000000000D+01  .154800000000D+04  .000000000000D+00
     .240000000000D+01  .000000000000D+00 -.116415321827D-07  .850000000000D+02
     .338406000000D+06  .400000000000D+01
13 09  9 10  0  0  0.0  .304391141981D-03  .568434188608D-12  .000000000000D+00
     .780000000000D+02 -.563437500000D+02  .376301388749D-08 -.172676672174D+01
    -.300444662571D-05  .401716970373D-02  .474788248539D-05  .515365720177D+04
     .345600000000D+06  .502914190292D-07 -.121541425477D+00  .169500708580D-06
     .994712395867D+00  .306531250000D+03  .165822121237D+01 -.789675750308D-08
    -.357514891930D-09  .100000000000D+01  .154800000000D+04  .000000000000D+00
     .240000000000D+01  .000000000000D+00 -.111758708954D-07  .780000000000D+02
     .338406000000D+06  .400000000000D+01
14 09  9 10  0  0  0.0 -.531384721398D-04  .522959453519D-11  .000000000000D+00
     .103000000000D+03 -.675625000000D+02  .386658963041D-08 -.175562073715D+01
    -.347942113876D-05  .489990075585D-02  .487267971039D-05  .515364466667D+04
     .345600000000D+06  .931322574615D-07 -.141693617948D+00 -.633299350739D-07
     .988138988527D+00  .303062500000D+03 -.215857615903D+01 -.788247119371D-08
    -.341799951626D-09  .100000000000D+01  .154800000000D+04  .000000000000D+00
     .240000000000D+01  .000000000000D+00 -.884756445885D-08  .103000000000D+03
     .338406000000D+06  .400000000000D+01
15 09  9 10  0  0  0.0 -.317723024637D-03 -.125055521494D-11  .000000000000D+00
     .850000000000D+02 -.484375000000D+02  .456269005435D-08 -.153773116856D+01
    -.243447721004D-05  .166241498664D-02  .436417758465D-05  .515365964890D+04
     .345600000000D+06 -.149011611938D-07 -.197456650919D+00  .223517417908D-07
     .956002644296D+00  .292812500000D+03 -.517752849136D+00 -.827963059413D-08
    -.252153360342D-09  .100000000000D+01  .154800000000D+04  .000000000000D+00
     .240000000000D+01  .000000000000D+00 -.977888703346D-08  .850000000000D+02
     .338406000000D+06  .400000000000D+01
16 09  9 10  0  0  0.0  .143512152135D-04 -.386535248253D-11  .000000000000D+00
     .960000000000D+02 -.100000000000D+02  .453054585828D-08 -.128955887827D+00
    -.461935997009D-06  .529849459417D-02  .641681253910D-05  .515360974121D+04
     .345600000000D+06  .763684511185D-07  .193530540574D+01 -.391155481339D-07
     .969126915409D+00  .256406250000D+03 -.277457512511D+00 -.809676583423D-08
     .464305054455D-09  .100000000000D+01  .154800000000D+04  .000000000000D+00
     .240000000000D+01  .000000000000D+00 -.977888703346D-08  .960000000000D+02
     .338406000000D+06  .400000000000D+01
17 09  9 10  0  0  0.0  .837049447000D-04  .295585778076D-11  .000000000000D+00
     .520000000000D+02 -.299687500000D+02  .485520223866D-08 -.125805577569D+01
    -.150501728058D-05  .465248886030D-02  .766105949879D-05  .515372659302D+04
     .345600000000D+06  .577419996262D-07  .297795587449D+01 -.372529029846D-08
     .960213991921D+00  .230125000000D+03 -.264075196692D+01 -.806569311135D-08
    -.144648882349D-09  .100000000000D+01  .154800000000D+04  .000000000000D+00
     .240000000000D+01  .000000000000D+00 -.102445483208D-07  .520000000000D+02
     .338406000000D+06  .400000000000D+01
18 09  9 10  0  0  0.0  .116205774248D-04  .295585778076D-11  .000000000000D+00
     .980000000000D+02  .742812500000D+02  .530879256109D-08  .758932831342D-01
     .396929681301D-05  .109075843357D-01  .338815152645D-05  .515362426758D+04
     .345600000000D+06  .577419996262D-07 -.120207119987D+01  .169500708580D-06
     .940550636452D+00  .302781250000D+03 -.238171825891D+01 -.876357932397D-08
    -.785747015231D-10  .100000000000D+01  .154800000000D+04  .000000000000D+00
     .240000000000D+01  .000000000000D+00 -.107102096081D-07  .980000000000D+02
     .338406000000D+06  .400000000000D+01
19 09  9 10  0  0  0.0  .114939175546D-04 -.170530256582D-11  .000000000000D+00
     .250000000000D+02 -.281250000000D+02  .485948813147D-08 -.190347718571D+01
    -.162236392498D-05  .582840084098D-02  .856444239616D-05  .515364606285D+04
     .345600000000D+06 -.689178705215D-07  .303368489754D+01 -.113621354103D-06
     .957924789915D+00  .217250000000D+03 -.264202705217D+00 -.804462080503D-08
    -.192865176466D-09  .100000000000D+01  .154800000000D+04  .000000000000D+00
     .240000000000D+01  .000000000000D+00 -.149011611938D-07  .250000000000D+02
     .338406000000D+06  .400000000000D+01
20 09  9 10  0  0  0.0  .726687721908D-04 -.909494701773D-12  .000000000000D+00
     .790000000000D+02  .936562500000D+02  .518414451186D-08  .253770206296D+00
     .486336648464D-05  .383327435702D-02  .450015068054D-05  .515378101349D+04
     .345600000000D+06 -.558793544769D-08 -.125597605331D+01  .372529029846D-08
     .940247645637D+00  .279593750000D+03  .132858920201D+01 -.865786063465D-08
     .285726187357D-11  .100000000000D+01  .154800000000D+04  .000000000000D+00
     .240000000000D+01  .000000000000D+00 -.745058059692D-08  .790000000000D+02
     .338406000000D+06  .400000000000D+01
21 09  9 10  0  0  0.0 -.823475420475D-05 -.227373675443D-11  .000000000000D+00
     .880000000000D+02  .670000000000D+02  .522378902035D-08  .131585180836D+01
     .372715294361D-05  .155491629848D-01  .102780759335D-04  .515376139641D+04
     .345600000000D+06 -.819563865662D-07 -.226054715945D+01  .245869159698D-06
     .933649261896D+00  .170468750000D+03 -.256066456056D+01 -.842213653008D-08
    -.282511767749D-09  .100000000000D+01  .154800000000D+04  .000000000000D+00
     .240000000000D+01  .000000000000D+00 -.121071934700D-07  .880000000000D+02
     .338406000000D+06  .400000000000D+01
22 09  9 10  0  0  0.0  .191336963326D-03 -.795807864051D-12  .000000000000D+00
     .620000000000D+02  .834062500000D+02  .525950479377D-08 -.945412589098D+00
     .421702861786D-05  .533345539588D-02  .324100255966D-05  .515366205025D+04
     .345600000000D+06 -.149011611938D-07 -.119660297886D+01  .819563865662D-07
     .938222563250D+00  .305000000000D+03 -.189321653138D+01 -.867571852136D-08
    -.714315468392D-10  .100000000000D+01  .154800000000D+04  .000000000000D+00
     .240000000000D+01  .000000000000D+00 -.176951289177D-07  .620000000000D+02
     .338406000000D+06  .400000000000D+01
23 09  9 10  0  0  0.0  .388726126403D-03 -.454747350886D-12  .000000000000D+00
     .540000000000D+02 -.554062500000D+02  .431875132190D-08 -.240846203695D+01
    -.291503965855D-05  .646094849799D-02  .426545739174D-05  .515357706070D+04
     .345600000000D+06 -.124797224998D-06 -.176034644092D+00  .186264514923D-07
     .970061108562D+00  .302718750000D+03  .296707554709D+01 -.817141180067D-08
    -.289654922433D-09  .100000000000D+01  .154800000000D+04  .000000000000D+00
     .240000000000D+01  .000000000000D+00 -.200234353542D-07  .540000000000D+02
     .338406000000D+06  .400000000000D+01
24 09  9 10  0  0  0.0  .219343230128D-03  .295585778076D-11  .000000000000D+00
     .470000000000D+02  .633437500000D+02  .479198531971D-08 -.265116231727D-01
     .331923365593D-05  .648803787772D-02  .976957380772D-05  .515367317009D+04
     .345600000000D+06  .204890966415D-07 -.222661531588D+01 -.540167093277D-07
     .950251664630D+00  .187406250000D+03 -.628349151641D+00 -.814605360154D-08
    -.578595529398D-10  .100000000000D+01  .154800000000D+04  .000000000000D+00
     .240000000000D+01  .000000000000D+00 -.139698386192D-08  .470000000000D+02
     .338406000000D+06  .400000000000D+01
25 09  9 10  0  0  0.0  .588133465499D-03  .150066625793D-10  .000000000000D+00
     .880000000000D+02 -.692500000000D+02  .400945272409D-08  .506712632101D+00
    -.364147126675D-05  .112292157719D-01  .929087400436D-05  .515365062332D+04
     .345600000000D+06 -.502914190292D-07  .770956111771D+00 -.165775418282D-06
     .970914014672D+00  .208812500000D+03 -.121210474201D+01 -.801890544817D-08
     .105718689322D-09  .100000000000D+01  .154800000000D+04  .000000000000D+00
     .340000000000D+01  .630000000000D+02 -.745058059692D-08  .880000000000D+02
     .338406000000D+06  .400000000000D+01
26 09  9 10  0  0  0.0  .631534494460D-04 -.909494701773D-12  .000000000000D+00
     .110000000000D+02 -.689687500000D+02  .381730186309D-08  .168820119341D+01
    -.395253300667D-05  .197017949540D-01  .560469925404D-05  .515360747337D+04
     .345600000000D+06 -.387430191040D-06 -.124106640625D+00 -.271946191788D-06
     .992517730553D+00  .297312500000D+03  .102556196174D+01 -.796497463031D-08
    -.394659296287D-09  .100000000000D+01  .154800000000D+04  .000000000000D+00
     .240000000000D+01  .000000000000D+00 -.605359673500D-08  .110000000000D+02
     .338406000000D+06  .400000000000D+01
